YAM-10                  
1 64580U 25135BE  26199.80310038  .00000976  00000+0  10207-3 0  9993
2 64580  97.7755 313.2215 0001959 227.1624 132.9431 14.91907885 58570
YAM-11                  
1 68991U 26100M   26199.26961610  .00000729  00000+0  80138-4 0  9991
2 68991  97.7669  95.9830 0009017 352.4894   7.6188 14.90595262 11325
YAM-16                  
1 68992U 26100N   26199.68305097  .00000623  00000+0  67746-4 0  9992
2 68992  97.7331  96.5171 0004584  54.4052 305.7593 14.91520722 11395
YAM-13                  
1 68993U 26100P   26199.69530140  .00000544  00000+0  61481-4 0  9995
2 68993  97.7651  96.5066 0009174 347.8837  12.2159 14.90416161 11392
YAM-15                  
1 68997U 26100T   26199.27849029  .00000611  00000+0  67925-4 0  9996
2 68997  97.7626  96.1211 0009582   1.8278 358.2973 14.90654716 11336
YAM-12                  
1 69003U 26100Z   26199.52160390  .00002242  00000+0  23545-3 0  9991
2 69003  97.7632  96.2484 0009546 340.3637  19.7212 14.90456374 11352
YAM-14                  
1 69008U 26100AE  26199.71617867  .00000677  00000+0  75207-4 0  9996
2 69008  97.7642  96.4608 0005885  27.1062 333.0462 14.90353222 11382
