{"fetched_at":"2026-07-19T07:05:45.895Z","source":"https://celestrak.org/NORAD/elements/gp.php?NAME=YAM&FORMAT=JSON","constellation":"earthdaily-constellation","records":[{"OBJECT_NAME":"YAM-10","OBJECT_ID":"2025-135BE","EPOCH":"2026-07-18T19:16:27.872832","CLASSIFICATION_TYPE":"U","MEAN_MOTION":14.91907885,"ECCENTRICITY":0.0001959,"INCLINATION":97.7755,"RA_OF_ASC_NODE":313.2215,"ARG_OF_PERICENTER":227.1624,"MEAN_ANOMALY":132.9431,"EPHEMERIS_TYPE":0,"NORAD_CAT_ID":64580,"ELEMENT_SET_NO":999,"REV_AT_EPOCH":5857,"BSTAR":0.00010207,"MEAN_MOTION_DOT":0.00000976,"MEAN_MOTION_DDOT":0},{"OBJECT_NAME":"YAM-11","OBJECT_ID":"2026-100M","EPOCH":"2026-07-18T06:28:14.831040","CLASSIFICATION_TYPE":"U","MEAN_MOTION":14.90595262,"ECCENTRICITY":0.0009017,"INCLINATION":97.7669,"RA_OF_ASC_NODE":95.983,"ARG_OF_PERICENTER":352.4894,"MEAN_ANOMALY":7.6188,"EPHEMERIS_TYPE":0,"NORAD_CAT_ID":68991,"ELEMENT_SET_NO":999,"REV_AT_EPOCH":1132,"BSTAR":0.000080138,"MEAN_MOTION_DOT":0.00000729,"MEAN_MOTION_DDOT":0},{"OBJECT_NAME":"YAM-16","OBJECT_ID":"2026-100N","EPOCH":"2026-07-18T16:23:35.603808","CLASSIFICATION_TYPE":"U","MEAN_MOTION":14.91520722,"ECCENTRICITY":0.0004584,"INCLINATION":97.7331,"RA_OF_ASC_NODE":96.5171,"ARG_OF_PERICENTER":54.4052,"MEAN_ANOMALY":305.7593,"EPHEMERIS_TYPE":0,"NORAD_CAT_ID":68992,"ELEMENT_SET_NO":999,"REV_AT_EPOCH":1139,"BSTAR":0.000067746,"MEAN_MOTION_DOT":0.00000623,"MEAN_MOTION_DDOT":0},{"OBJECT_NAME":"YAM-13","OBJECT_ID":"2026-100P","EPOCH":"2026-07-18T16:41:14.040960","CLASSIFICATION_TYPE":"U","MEAN_MOTION":14.90416161,"ECCENTRICITY":0.0009174,"INCLINATION":97.7651,"RA_OF_ASC_NODE":96.5066,"ARG_OF_PERICENTER":347.8837,"MEAN_ANOMALY":12.2159,"EPHEMERIS_TYPE":0,"NORAD_CAT_ID":68993,"ELEMENT_SET_NO":999,"REV_AT_EPOCH":1139,"BSTAR":0.000061481,"MEAN_MOTION_DOT":0.00000544,"MEAN_MOTION_DDOT":0},{"OBJECT_NAME":"YAM-15","OBJECT_ID":"2026-100T","EPOCH":"2026-07-18T06:41:01.561056","CLASSIFICATION_TYPE":"U","MEAN_MOTION":14.90654716,"ECCENTRICITY":0.0009582,"INCLINATION":97.7626,"RA_OF_ASC_NODE":96.1211,"ARG_OF_PERICENTER":1.8278,"MEAN_ANOMALY":358.2973,"EPHEMERIS_TYPE":0,"NORAD_CAT_ID":68997,"ELEMENT_SET_NO":999,"REV_AT_EPOCH":1133,"BSTAR":0.000067925,"MEAN_MOTION_DOT":0.00000611,"MEAN_MOTION_DDOT":0},{"OBJECT_NAME":"YAM-12","OBJECT_ID":"2026-100Z","EPOCH":"2026-07-18T12:31:06.576960","CLASSIFICATION_TYPE":"U","MEAN_MOTION":14.90456374,"ECCENTRICITY":0.0009546,"INCLINATION":97.7632,"RA_OF_ASC_NODE":96.2484,"ARG_OF_PERICENTER":340.3637,"MEAN_ANOMALY":19.7212,"EPHEMERIS_TYPE":0,"NORAD_CAT_ID":69003,"ELEMENT_SET_NO":999,"REV_AT_EPOCH":1135,"BSTAR":0.00023545,"MEAN_MOTION_DOT":0.00002242,"MEAN_MOTION_DDOT":0},{"OBJECT_NAME":"YAM-14","OBJECT_ID":"2026-100AE","EPOCH":"2026-07-18T17:11:17.837088","CLASSIFICATION_TYPE":"U","MEAN_MOTION":14.90353222,"ECCENTRICITY":0.0005885,"INCLINATION":97.7642,"RA_OF_ASC_NODE":96.4608,"ARG_OF_PERICENTER":27.1062,"MEAN_ANOMALY":333.0462,"EPHEMERIS_TYPE":0,"NORAD_CAT_ID":69008,"ELEMENT_SET_NO":999,"REV_AT_EPOCH":1138,"BSTAR":0.000075207,"MEAN_MOTION_DOT":0.00000677,"MEAN_MOTION_DDOT":0}]}
